ID,Name,A1,A2,A3,postcode,latitude,longitude
8A101,ST LUKE'S HOSPICE (SHEFFIELD),LITTLE COMMON LANE,,SHEFFIELD,S11 9NE,53.343874,-1.521647
8A260,ST BARNABAS LINCOLNSHIRE HOSPICE (IPU),INPATIENT UNIT,36 NETTLEHAM ROAD,LINCOLN,LN2 1RE,53.238307,-0.53188
8A323,ST BARNABAS LINCOLNSHIRE HOSPICE (BOSTON),BOSTON HOSPICE,MAYFLOER LODGE,BOSTON,PE21 9NB,52.99196,-0.033838
8A340,EAST ANGLIA'S CHILDREN'S HOSPICES,CHURCH LANE,MILTON,CAMBRIDGE,CB24 6AB,52.243993,0.165636
8A372,SUE RYDER (THORPE HALL HOSPICE),THORPE HALL HOSPICE,THORPE ROAD,PETERBOROUGH,PE3 6LW,52.572919,-0.277058
8A408,ST ELIZABETH HOSPICE,565 FOXHALL ROAD,,IPSWICH,IP3 8LX,52.052096,1.196977
8A438,ST NICHOLAS HOSPICE,MACMILLAN WAY,HARDWICK LANE,BURY ST. EDMUNDS,IP33 2QY,52.228097,0.708533
8A490,EAST ANGLIA'S CHILDREN'S HOSPICES,THE NOOK,PIGOT LANE,NORWICH,NR14 7PX,52.577817,1.342751
8A521,SUE RYDER (ST JOHN'S HOSPICE),ST. JOHNS ROAD,MOGGERHANGER,BEDFORD,MK44 3RJ,52.128172,-0.335252
8A551,HOSPICE OF ST FRANCIS,SPRING GARDEN LANE,NORTHCHURCH,BERKHAMSTED,HP4 3GW,51.766253,-0.599453
8A601,NORTH LONDON HOSPICE,47 WOODSIDE AVENUE,,LONDON,N12 8TT,51.622236,-0.18043
8A632,NORTH HERTS HOSPICE CARE ASSOCIATION,GARDEN HOUSE HOSPICE,GILLISON CLOSE,LETCHWORTH GARDEN CITY,SG6 1QU,51.97601,-0.215809
8A644,ISABEL HOSPICE,HEAD OFFICE,61 BRIDGE ROAD EAST,WELWYN GARDEN CITY,AL7 1JR,51.801037,-0.194793
8A709,THE LONDON LIGHTHOUSE,111-117 LANCASTER ROAD,,LONDON,W11 1QT,51.516212,-0.211222
8A743,ST LUKE'S HOSPICE (BASILDON),FOBBING FARM,NETHERMAYNE,BASILDON,SS16 5NJ,51.557673,0.456905
8A752,FARLEIGH HOSPICE,NORTH COURT ROAD,BROOMFIELD,CHELMSFORD,CM1 7FH,51.776487,0.467759
8A784,ST HELENA HOSPICE,MYLAND HALL,BARNCROFT CLOSE,COLCHESTER,CO4 9JU,51.907757,0.914819
8A832,FAIR HAVENS HOSPICE,126 CHALKWELL AVENUE,,WESTCLIFF ON SEA,SS0 8HN,51.538277,0.677489
8A861,ST FRANCIS HOSPICE,BROXHILL ROAD,HAVERING-ATTE-BOWER,ROMFORD,RM4 1QH,51.617039,0.196962
8A868,MARIE CURIE CENTRE (HAMPSTEAD),11 LYNDHURST GARDENS,,LONDON,NW3 5NS,51.550549,-0.172329
8A872,ST JOSEPHS HOSPICE,MARE STREET,,LONDON,E8 4SA,51.537054,-0.056228
8A934,ST CLARE HOSPICE,STONE BARTON,HASTINGWOOD ROAD,HARLOW,CM17 9JX,51.744585,0.14436
8A970,ST CHRISTOPHERS HOSPICE,51-59 LAWRIE PARK ROAD,,LONDON,SE26 6DZ,51.421384,-0.058667
8AL40,WILLOW BURN HOSPICE,"HOWDEN BANK, LANCHESTER ROAD",MAIDEN LAW,DURHAM,DH7 0QS,54.839818,-1.733464
8AM97,TEESSIDE HOSPICE CARE FOUNDATION,1-1A NORTHGATE ROAD,,MIDDLESBROUGH,TS5 5NW,54.553823,-1.2498
8AN30,ST CLARE'S HOSPICE,PRIMROSE TERRACE,,JARROW,NE32 5HA,54.967662,-1.485734
8AN51,EDEN VALLEY HOSPICE,DURDAR ROAD,,CARLISLE,CA2 4SD,54.870775,-2.932471
8AN60,ST OSWALDS HOSPICE,REGENT AVENUE,,NEWCASTLE UPON TYNE,NE3 1EE,55.008563,-1.624699
8AP18,DOVE HOUSE HOSPICE,CHAMBERLAIN ROAD,,HULL,HU8 8DH,53.76416,-0.319701
8AP52,ST ANDREW'S HOSPICE,PEAKS LANE,,GRIMSBY,DN32 9RP,53.551095,-0.073824
8AP85,LINDSEY LODGE HOSPICE,BURRINGHAM ROAD,,SCUNTHORPE,DN17 2AA,53.564926,-0.689741
8AQ18,ST LEONARD'S HOSPICE,185 TADCASTER ROAD,DRINGHOUSES,YORK,YO24 1GL,53.932182,-1.111782
8AQ51,ST CATHERINE'S HOSPICE,THROXENBY LANE,,SCARBOROUGH,YO12 5RE,54.285768,-0.441606
8AR03,NORTH YORKSHIRE HOSPICE CARE,CRIMPLE HOUSE,HORNBEAM PARK AVENUE,HARROGATE,HG2 8NA,53.976876,-1.518812
8AT18,SUE RYDER (MANORLANDS),KEIGHLEY ROAD,OXENHOPE,KEIGHLEY,BD22 9HJ,53.81327,-1.95123
8AT19,MARIE CURIE HOSPICE (BRADFORD),MAUDSLEY STREET,,BRADFORD,BD3 9LE,53.79429,-1.733535
8AT30,OVERGATE HOSPICE,30 HULLEN EDGE RD,,ELLAND,HX5 0QY,53.684129,-1.851478
8AT59,KIRKWOOD HOSPICE,21 ALBANY ROAD,DALTON,HUDDERSFIELD,HD5 9UY,53.650016,-1.739117
8AV11,SUE RYDER (WHEATFIELDS HOSPICE),WOOD LANE,HEADINGLEY,LEEDS,LS6 2AE,53.821261,-1.573775
8AV40,MARTIN HOUSE HOSPICE,GROVE ROAD,BOSTON SPA,WETHERBY,LS23 6TX,53.900069,-1.344265
8AV47,ST GEMMA'S HOSPICE,329 HARROGATE ROAD,,LEEDS,LS17 6QD,53.842326,-1.534185
8AV81,WAKEFIELD HOSPICE,ABERFORD ROAD,,WAKEFIELD,WF1 4TS,53.697493,-1.483983
8AV89,PRINCE OF WALES HOSPICE,HALFPENNY LANE,,PONTEFRACT,WF8 4BG,53.688605,-1.329441
8AW20,ASHGATE HOSPICECARE,ASHGATE ROAD,OLD BRAMPTON,CHESTERFIELD,S42 7JD,53.240417,-1.479632
8AX27,TREETOPS HOSPICE,DERBY ROAD,RISLEY,DERBY,DE72 3SS,52.917238,-1.322309
8AX50,LEICESTERSHIRE AND RUTLAND HOSPICE,GROBY ROAD,,LEICESTER,LE3 9QE,52.653038,-1.168062
8AY01,RAINBOWS HOSPICE FOR CHILDREN AND YOUNG PEOPLE,LARK RISE,,LOUGHBOROUGH,LE11 2HS,52.746104,-1.215814
8C010,WESTON HOSPICECARE,JACKSON BARSTOW HOUSE,"28 THORNBURY ROAD, UPHILL",WESTON-SUPER-MARE,BS23 4YQ,51.322748,-2.983986
8C121,HOSPISCARE,DRYDEN ROAD,,EXETER,EX2 5JJ,50.715118,-3.508089
8C184,NORTH DEVON HOSPICE CARE TRUST,DEER PARK ROAD,,BARNSTAPLE,EX32 0HU,51.064159,-4.042294
8C279,ST LUKES HOSPICE (PLYMOUTH),STAMFORD ROAD,,PLYMOUTH,PL9 9XA,50.355807,-4.120497
8C283,ROWCROFT HOSPICE,AVENUE ROAD,,TORQUAY,TQ2 5LS,50.469852,-3.548
8C405,SUE RYDER (LECKHAMPTON COURT HOSPICE),CHURCH ROAD,LECKHAMPTON,CHELTENHAM,GL53 0QJ,51.872967,-2.087009
8C468,ST MARGARET'S SOMERSET HOSPICE,HERON DRIVE,BISHOPS HULL,TAUNTON,TA1 5HA,51.01649,-3.127096
8C520,ST MICHAELS HOSPICE,BARTESTREE,,HEREFORD,HR1 4HA,52.061571,-2.631449
8C572,ST RICHARD'S HOSPICE,WILD WOOD DRIVE,,WORCESTER,WR5 2QT,52.185328,-2.179652
8C603,SEVERN HOSPICE,BICTON HEATH,,SHREWSBURY,SY3 8HS,52.720353,-2.802403
8C717,MARY STEVENS HOSPICE,221 HAGLEY ROAD,,STOURBRIDGE,DY8 2JR,52.444503,-2.137481
8C743,MARIE CURIE CENTRE (SOLIHULL),911-913 WARWICK ROAD,,SOLIHULL,B91 3ER,,
8C788,BIRMINGHAM HOSPICE,176 RADDLEBARN ROAD,SELLY PARK,BIRMINGHAM,B29 7DA,52.439472,-1.926736
8C798,ACORNS SELLY OAK,103 OAK TREE LANE,SELLY OAK,BIRMINGHAM,B29 6HZ,52.43511,-1.93826
8C884,KEMP HOSPICE,41 MASON ROAD,,KIDDERMINSTER,DY11 6AG,52.390473,-2.263979
8C887,DOUGLAS MACMILLAN HOSPICE,BARLASTON ROAD,,STOKE-ON-TRENT,ST3 3NZ,52.970571,-2.150544
8C928,ST GILES HOSPICE,FISHERWICK ROAD,WHITTINGTON,LICHFIELD,WS14 9LH,52.671208,-1.762968
8C960,KATHARINE HOUSE HOSPICE (STAFFORD),WESTON ROAD,,STAFFORD,ST16 3SB,52.811005,-2.093463
8CA01,DRAPERS WING (ST CHRISTOPHERS HOSPICE),51-59 LAWRIE PARK ROAD,,LONDON,SE26 6DZ,51.421384,-0.058667
8CA76,ST PETER'S & ST JAMES' HOSPICE & CONTINUING CARE CENTRE,NORTH COMMON ROAD,NORTH CHAILEY,LEWES,BN8 4ED,50.965633,-0.055553
8CD77,ST WILFRID'S HOSPICE (EAST SUSSEX),1 BROADWATER WAY,,EASTBOURNE,BN22 9PZ,50.791837,0.275373
8CE30,ST MICHAEL'S HOSPICE,25 UPPER MAZE HILL,,ST. LEONARDS-ON-SEA,TN38 0LB,50.854999,0.552811
8CE67,THE SUSSEX BEACON NH,BEVENDEAN ROAD,,BRIGHTON,BN2 4DE,50.838597,-0.112934
8CF54,PILGRIMS HOSPICE IN EAST KENT,56 LONDON ROAD,,CANTERBURY,CT2 8JA,51.282225,1.064224
8CF79,PILGRIMS HOSPICE IN THANET,RAMSGATE ROAD,,MARGATE,CT9 4AD,51.376449,1.386633
8CG25,THE HEART OF KENT HOSPICE,PRESTON HALL,AYLESFORD,MAIDSTONE,ME20 7PU,51.294692,0.479156
8CH25,TRINITY HOSPICE,30 CLAPHAM COMMON NORTH SIDE,,LONDON,SW4 0RN,51.461911,-0.146174
8CJ79,ST RAPHAEL'S HOSPICE,LONDON ROAD,CHEAM,SUTTON,SM3 9DX,51.378958,-0.220759
8CL13,PHYLLIS TUCKWELL HOSPICE,WAVERLEY LANE,,FARNHAM,GU9 8BL,51.210662,-0.783122
8CL93,PRINCESS ALICE HOSPICE,WEST END LANE,,ESHER,KT10 8NA,51.367129,-0.376629
8CM39,ST WILFRID'S HOSPICE,WALTON LANE,BOSHAM,CHICHESTER,PO18 8QB,50.835267,-0.844132
8CM83,ST CATHERINE'S HOSPICE,GRACE HOLLAND AVENUE,PEASE POTTAGE,CRAWLEY,RH11 9SL,51.083206,-0.191892
8CN39,ST BARNABAS HOUSE,2 TITNORE LANE,GORING-BY-SEA,WORTHING,BN12 6NZ,50.825924,-0.43382
8CP96,LEWIS-MANNING HOSPICE CARE LIMITED,56 LONGFLEET ROAD,,POOLE,BH15 2JD,50.722858,-1.971041
8CQ06,WELDMAR HOSPICECARE TRUST,HERRINGSTON ROAD,,DORCHESTER,DT1 2SL,50.70045,-2.442114
8CQ61,THE ROWANS HOSPICE,PURBROOK HEATH ROAD,PURBROOK,WATERLOOVILLE,PO7 5RU,50.86716,-1.051135
8CR40,OAKHAVEN HOSPICE TRUST,LOWER PENNINGTON LANE,PENNINGTON,LYMINGTON,SO41 8ZZ,50.745501,-1.552102
8CT09,ST MICHAEL'S HOSPICE (NORTH HAMPSHIRE),BASIL DE FERRANTI HOUSE,ALDERMASTON ROAD,BASINGSTOKE,RG24 9NB,51.281516,-1.111274
8CT53,PROSPECT HOSPICE,MOORMEAD ROAD,WROUGHTON,SWINDON,SN4 9BY,51.526412,-1.785281
8CT86,DOROTHY HOUSE HOSPICE CARE,WINSLEY,,BRADFORD-ON-AVON,BA15 2LE,51.346347,-2.291329
8CV48,THAMES HOSPICE,WINDSOR ROAD,,MAIDENHEAD,SL6 2DN,51.49619,-0.693293
8CW30,WILLEN HOSPICE,MILTON ROAD,WILLEN VILLAGE,MILTON KEYNES,MK15 9AB,52.062779,-0.71981
8CX25,HELEN AND DOUGLAS HOUSE,14A MAGDALEN ROAD,,OXFORD,OX4 1RW,51.744324,-1.231335
8CX46,KATHARINE HOUSE HOSPICE,EAST END,ADDERBURY,BANBURY,OX17 3NL,52.01804,-1.302986
8CY53,ST PETERS HOSPICE (BRISTOL),ST. AGNES AVENUE,,BRISTOL,BS4 2DU,51.436208,-2.57829
8D642,NOTTINGHAMSHIRE HOSPICE,384 WOODBOROUGH ROAD,,NOTTINGHAM,NG3 4JF,52.971778,-1.140145
8D671,WELDMAR HOSPICECARE TRUST,9 GREENHILL,,WEYMOUTH,DT4 7SW,50.621855,-2.448006
8D968,ST BARNABAS LINCOLNSHIRE HOSPICE (GRANTHAM),GRANTHAM HOSPICE,86 BARROWBY ROAD,GRANTHAM,NG31 8AF,52.916901,-0.655669
8DA93,THE HOSPICE OF THE GOOD SHEPHERD,GORDON LANE,BACKFORD,CHESTER,CH2 4DG,53.242852,-2.902193
8DC20,ST LUKES (CHESHIRE) HOSPICE,GROSVENOR HOUSE,QUEENS WAY,WINSFORD,CW7 1BH,53.188541,-2.525405
8DC39,EAST CHESHIRE HOSPICE,MILLBANK DRIVE,,MACCLESFIELD,SK10 3DR,53.266971,-2.152947
8DD02,ST ROCCO'S HOSPICE,LOCKTON LANE,,WARRINGTON,WA5 0BW,53.399051,-2.612203
8DD33,MARIE CURIE CENTRE (LIVERPOOL),SPEKE ROAD,WOOLTON,LIVERPOOL,L25 8QA,53.373329,-2.864411
8DF19,QUEENSCOURT HOSPICE,TOWN LANE,,SOUTHPORT,PR8 6RE,53.633559,-2.974616
8DF31,ST JOSEPH'S HOSPICE ASSOCIATION,INCE ROAD,,LIVERPOOL,L23 4UE,53.502499,-3.00779
8DF98,WIRRAL HOSPICE ST JOHN'S,MOUNT ROAD,HIGHER BEBINGTON,WIRRAL,CH63 6JE,53.335187,-3.021563
8DG59,MOYA COLE HOSPICE (CHEADLE),ST. ANNS ROAD NORTH,HEALD GREEN,CHEADLE,SK8 3SZ,53.374951,-2.226746
8DH25,TRINITY HOSPICE & BRIAN HOUSE,LOW MOOR ROAD,,BLACKPOOL,FY2 0BG,53.842486,-3.027274
8DJ73,ST CATHERINE'S HOSPICE,LOSTOCK LANE,LOSTOCK HALL,PRESTON,PR5 5XU,53.720825,-2.681332
8DK20,WIGAN & LEIGH HOSPICE,KILDARE STREET,HINDLEY,WIGAN,WN2 3HZ,53.532402,-2.586139
8DK51,BURY HOSPICE,ROCHDALE OLD ROAD,,BURY,BL9 7RG,53.599758,-2.267009
8DK70,SPRINGHILL HOSPICE,BROAD LANE,,ROCHDALE,OL16 4PZ,53.597602,-2.139318
8DL88,FRANCIS HOUSE CHILDREN'S HOSPICE,390 PARRS WOOD ROAD,,MANCHESTER,M20 5NA,53.411691,-2.224219
8DM02,MOYA COLE HOSPICE,PEEL LANE,WORSLEY,MANCHESTER,M28 0FE,53.528167,-2.42521
8DM64,ST JOHNS HOSPICE (LANCASTER),SLYNE ROAD,,LANCASTER,LA2 6ST,54.067411,-2.804073
8DM81,ST MARYS HOSPICE,FORD PARK,,ULVERSTON,LA12 7JP,54.199569,-3.085449
8E339,WOODLANDS HOSPICE CHARITABLE TRUST,UNIVERSITY HOSPITAL CAMPUS,LONGMOOR LANE,LIVERPOOL,L9 7LA,53.465696,-2.93853
8E727,CHILDREN'S HOSPICE SOUTH WEST,LITTLE BRIDGE HOUSE,REDLANDS ROAD,BARNSTAPLE,EX31 2PZ,51.069792,-4.116912
8E782,ST CUTHBERTS HOSPICE,PARK HOUSE ROAD,,DURHAM,DH1 3QF,54.763883,-1.593656
8E984,NAOMI HOUSE,STOCKBRIDGE ROAD,SUTTON SCOTNEY,WINCHESTER,SO21 3JE,51.152552,-1.345384
8EA16,ST PETERS HOSPICE (BRENTRY),CHARLTON ROAD,,BRISTOL,BS10 6NL,51.506124,-2.609015
8EA45,PRIMROSE HOSPICE,ST GODWALDS ROAD,FINSTALL,BROMSGROVE,B60 3BW,52.320582,-2.044198
8EJ77,PAUL BEVAN CANCER FOUNDATION,PAUL BEVAN HOUSE,KINGS RIDE,ASCOT,SL5 7RD,,
8EJ79,RENNIE GROVE PEACE HOSPICE CARE (GILLIAN KING HOUSE),GILLIAN KING HOUSE,HODGEMOOR VIEW,CHALFONT ST. GILES,HP8 4LS,51.628431,-0.58511
8EJ80,HIGH PEAK HOSPICECARE,137 MANCHESTER ROAD,CHAPEL-EN-LE-FRITH,HIGH PEAK,SK23 9TN,53.319928,-1.929075
8EJ81,WELDMAR HOSPICECARE TRUST (DORSET),HAMMICK HOUSE,BRIDPORT ROAD,DORCHESTER,DT1 3SD,50.712128,-2.46364
8EJ83,RENNIE GROVE PEACE HOSPICE CARE (PEACE HOSPICE - HQ),PEACE DRIVE,,WATFORD,WD17 3PH,51.65866,-0.404473
8EJ84,RENNIE GROVE PEACE HOSPICE CARE (RENNIE HOUSE),"RENNIE HOUSE, UNIT 3",TRING INDUSTRIAL ESTATE,TRING,HP23 4JX,51.7952,-0.677252
8EJ85,RENNIE GROVE PEACE HOSPICE CARE (GROVE HOUSE),WAVERLEY ROAD,,ST ALBANS,AL3 5QX,51.761179,-0.344074
8EJ86,TAPPING HOUSE,WHEATFIELDS,HILLINGTON,KING'S LYNN,PE31 6BH,52.798451,0.5509
8EJ87,TYNEDALE COMMUNITY HOSPICE,19 BATTLE HILL,,HEXHAM,NE46 1BA,54.969999,-2.101934
8EJ88,HOSPICECARE NORTH NORTHUMBERLAND,UNIT 3,GREENSFIELD INDUSTRIAL ESTATE,ALNWICK,NE66 2DG,55.401581,-1.698249
8EJ89,BEAUMOND HOUSE COMMUNITY HOSPICE,NEWARK & DISTRICT HOSPICE AID,32 LONDON ROAD,NEWARK,NG24 1TW,53.073465,-0.809172
8EJ92,MARY ANN EVANS HOSPICE,ELIOT WAY,GEORGE ELIOT HOSPITAL SITE,NUNEATON,CV10 7QL,52.511933,-1.478719
8EJ93,HOSPICE CARE FOR BURNLEY & PENDLE,PENDLESIDE RESOURCE CENTRE,REEDLEY HALL,BURNLEY,BB10 2LW,53.819039,-2.237436
8EK01,HOSPICE ISLE OF MAN,HOSPICE CARE,STRANG,DOUGLAS,IM4 4RP,,
8EK02,JERSEY HOSPICE CARE,CLARKSON HOUSE,MONT COCHON,JERSEY,JE2 3JB,,
8EK03,LES BOURGS HOSPICE,ANDREW MITCHELL HOUSE,RUE DU TERTRE,GUERNSEY,GY6 8SF,,
8EN23,GREENWICH AND BEXLEY COMMUNITY HOSPICE,185 BOSTALL HILL,,LONDON,SE2 0GB,51.482685,0.118123
8FM13,WILLOWBROOK HOSPICE,PORTICO LANE,ECCLESTON PARK,PRESCOT,L34 2QT,53.433403,-2.777861
8FR82,DEMELZA HOUSE CHILDRENS'S HOSPICE,ROOK LANE,BOBBING,SITTINGBOURNE,ME9 8DZ,51.350626,0.691337
8FV04,CANFORD CHASE,40 WESTERN ROAD,,POOLE,BH13 6EU,50.717808,-1.910742
8G019,BUTTERWICK CHILDRENS HOSPICE,MIDDLEFIELD ROAD,,STOCKTON-ON-TEES,TS19 8XN,54.580344,-1.347804
8G093,MOYA COLE HOSPICE (WORSLEY),PEEL LANE,WORSLEY,MANCHESTER,M28 0FE,53.528167,-2.42521
8G095,WILLOW WOOD HOSPICE,WILLOW WOOD CLOSE,MELLOR ROAD,ASHTON-UNDER-LYNE,OL6 6SL,53.490233,-2.072169
8G096,THE SHAKESPEARE HOSPICE,CHURCH LANE,SHOTTERY,STRATFORD-UPON-AVON,CV37 9UL,52.19372,-1.73119
8G694,PILGRIMS HOSPICE AT ASHFORD,HYTHE ROAD,WILLESBOROUGH,ASHFORD,TN24 0NE,51.135425,0.917416
8G704,ACORNS CHILDRENS HOSPICE (BLACK COUNTRY),WALSTEAD ROAD,,WALSALL,WS5 4LZ,52.564921,-1.975919
8GA90,ST LUKES HOSPICE (HARROW),KENTON GRANGE,KENTON ROAD,HARROW,HA3 0YG,51.586705,-0.300263
8GK24,MARIE CURIE,8 VIADUCT GARDENS,,LONDON,SW11 7BW,51.482902,-0.130417
8GM92,ISABEL HOSPICE (GRIFFIN HOUSE),61 BRIDGE ROAD EAST,,WELWYN GARDEN CITY,AL7 1JR,51.801037,-0.194793
8GM94,MOYA COLE HOSPICE (PEEL LANE),WORSLEY,,MANCHESTER,M28 0FE,53.528167,-2.42521
8GN02,WEST CUMBRIA HOSPICE AT HOME,WORKINGTON COMMUNITY HOSPITAL,PARK LANE,WORKINGTON,CA14 2RW,54.642695,-3.551342
8GN03,HERRIOT HOSPICE HOMECARE,19 OMEGA BUSINESS VILLAGE,THURSTON ROAD,NORTHALLERTON,DL6 2NJ,54.350199,-1.438374
8GN08,LAKELANDS DAY CARE HOSPICE,BUTLAND ROAD,,CORBY,NN18 8LX,52.470844,-0.712501
8GN27,RICHARD HOUSE CHILDREN'S HOSPICE,RICHARD HOUSE DRIVE,BECKTON,LONDON,E16 3RG,51.510201,0.04273
8GP42,CHESTNUT TREE HOUSE CHILDREN'S HOSPICE,DOVER LANE,POLING,ARUNDEL,BN18 9PX,50.845149,-0.495223
8GT69,SAINT CATHERINES WHITBY DAY HOSPICE,5 MULGRAVE CRESCENT,,WHITBY,YO21 3JU,54.492686,-0.632918
8HE44,DR KERSHAWS HOSPICE,TURF LANE,ROYTON,OLDHAM,OL2 6EU,53.561623,-2.113247
8HN61,ST ANN'S HOSPICE - WYTHENSHAWE HOSPITAL,WYTHENSHAWE HOSPITAL,SOUTHMOOR ROAD,MANCHESTER,M23 9LT,53.387938,-2.293183
8HN64,ST ANDREW'S CHILDREN'S HOSPICE,PEAKS LANE,,GRIMSBY,DN32 9RP,53.551095,-0.073824
8HN67,SHOOTING STAR CHILDRENS HOSPICE,THE AVENUE,,HAMPTON,TW12 3RA,51.426202,-0.376005
8HP06,EAST ANGLIA'S CHILDREN'S HOSPICES - IPSWICH,6 WALKER CLOSE,,IPSWICH,IP3 8LY,52.052719,1.196555
8HP48,COMPTON HOSPICE LTD,4 COMPTON ROAD WEST,COMPTON,WOLVERHAMPTON,WV3 9DH,52.585816,-2.172062
8HP67,COVENTRY MYTON HOSPICE,CLIFFORD BRIDGE ROAD,WALSGRAVE,COVENTRY,CV2 2HJ,52.420671,-1.444078
8HQ05,WARWICK MYTON HOSPICE,MYTON LANE,,WARWICK,CV34 6PX,52.28263,-1.558661
8HQ06,RUGBY MYTON HOSPICE,BARBY ROAD,,RUGBY,CV22 5PY,52.361672,-1.252456
8HQ53,ST BARNABAS LINCOLNSHIRE HOSPICE (LINCOLN),LINCOLN HOSPICE & EDUCATION CENTRE,HAWTHORN ROAD,LINCOLN,LN2 4QX,53.244734,-0.49791
8HQ54,ST BARNABAS LINCOLNSHIRE HOSPICE (COMMS),"FUNDRAISING, SHOPS & PROMOTIONS","UNIT 12, NEWPORTE BUSINESS PARK",LINCOLN,LN2 4SY,53.237724,-0.510967
8HQ56,ST BARNABAS LINCOLNSHIRE HOSPICE (GAINSBOROUGH),GAINSBOROUGH HOSPICE,GEORGE HENDERSON LODGE,GAINSBOROUGH,DN21 3AD,53.413964,-0.784148
8HQ57,ST BARNABAS LINCOLNSHIRE HOSPICE (LOUTH),"OFFICE 13, FAIRFIELD E'PRISE CENTRE",LINCOLN WAY,LOUTH,LN11 0LS,53.383665,-0.011197
8HQ58,ST BARNABAS LINCOLNSHIRE HOSPICE (SKEGNESS),"OFFICE 12, SKEGNESS BUSINESS CENTRE",HEATH ROAD,SKEGNESS,PE25 3SJ,53.141457,0.321244
8HQ60,ST BARNABAS LINCOLNSHIRE HOSPICE (SPALDING),SPALDING HOSPICE,JENNY FREEMAN LODGE,SPALDING,PE11 3GD,52.796756,-0.164415
8HQ61,ST BARNABAS LINCOLNSHIRE HOSPICE (STAMFORD),STAMFORD & RUTLAND HOSPITAL,RYHALL ROAD,STAMFORD,PE9 1UA,52.65539,-0.46874
8HQ83,THE ROTHERHAM HOSPICE,BROOM ROAD,,ROTHERHAM,S60 2SW,53.424065,-1.340785
8HQ84,BLUEBELL WOOD CHILDREN'S HOSPICE,CRAMFIT ROAD,NORTH ANSTON,SHEFFIELD,S25 4AJ,53.360514,-1.22952
8HQ97,BARNSLEY HOSPICE,104-106 CHURCH STREET,GAWBER,BARNSLEY,S75 2RL,53.560704,-1.514754
8HR09,HOSPICE IN THE WEALD,MAIDSTONE ROAD,PEMBURY,TUNBRIDGE WELLS,TN2 4TA,51.154834,0.330255
8HX16,FORGET ME NOT CHILDREN'S HOSPICE,RUSSELL HOUSE,FELL GREAVE ROAD,HUDDERSFIELD,HD2 1NH,53.675962,-1.773229
8HX98,ST TERESA'S HOSPICE,THE WOODLANDS,91 WOODLAND ROAD,DARLINGTON,DL3 7UA,54.529085,-1.567062
8HY15,HALTON HAVEN HOSPICE,BARNFIELD AVENUE,MURDISHAW,RUNCORN,WA7 6EP,53.320263,-2.670823
8HY78,ALICE HOUSE HOSPICE,ALICE HOUSE,WELLS AVENUE,HARTLEPOOL,TS24 9DA,54.704049,-1.224422
8HY98,HAVENS HOSPICES,226 PRIORY CRESCENT,,SOUTHEND-ON-SEA,SS2 6PR,51.556226,0.703489
8J115,WOKING HOSPICE,5 HILL VIEW ROAD,,WOKING,GU22 7HW,51.314509,-0.55761
8J116,WOKING HOSPICE,THE GOLDSWORTH PARK CENTRE,DENTON WAY,WOKING,GU21 3LG,51.318796,-0.590697
8J260,DOUGLAS HOUSE,14A MAGDALEN ROAD,,OXFORD,OX4 1RW,51.744324,-1.231335
8J297,SUE RYDER (DUCHESS OF KENT HOSPICE),DUCHESS OF KENT HOSPICE,22 LIEBENROOD ROAD,READING,RG30 2DX,51.447543,-1.001724
8J335,SUE RYDER PALLIATIVE CARE HUB SOUTH OXFORDSHIRE,96-100 BATTLE BARNS,PRESTON CROWMARSH,WALLINGFORD,OX10 6SL,51.614097,-1.112332
8J773,AGE UK WIRRAL,DEVONSHIRE RESOURCE CENTRE,141 PARK ROAD NORTH,BIRKENHEAD,CH41 0DD,53.396826,-3.051628
8J925,GREAT OAKS HOSPICE,GREAT OAKS,THE GORSE,COLEFORD,GL16 8QE,51.800919,-2.619695
8JC33,THE DONNA LOUISE CHILDREN'S HOSPICE,THE DONNA LOUISE TRUST,1 GRACE ROAD,STOKE-ON-TRENT,ST4 8FN,52.96983,-2.172891
8JC61,EAST LANCASHIRE HOSPICE,PARK LEE ROAD,,BLACKBURN,BB2 3NY,53.734461,-2.478558
8JC95,HOSPICE IN ROSSENDALE,NEW CRIBDEN HOUSE,ROSSENDALE PRIMARY CARE HEALTH CENT,ROSSENDALE,BB4 7PL,53.700825,-2.280662
8JD12,ARTHUR RANK HOSPICE CHARITY,CHERRY HINTON ROAD,SHELFORD BOTTOM,CAMBRIDGE,CB22 3FB,52.167811,0.161231
8JG76,LONGFIELD HOSPICE CARE,BURLEIGH LANE,BURLEIGH,STROUD,GL5 2PQ,51.711823,-2.19476
8JH45,NOAH'S ARK CHILDREN'S HOSPICE,3 BEAUCHAMP COURT,VICTORS WAY,BARNET,EN5 5TZ,51.653231,-0.198965
8JJ43,SHOOTING STAR CHASE,BRIDGE HOUSE,ADDLESTONE ROAD,ADDLESTONE,KT15 2UE,51.371514,-0.472678
8JM49,MOUNTBATTEN ISLE OF WIGHT,HALBERRY LANE,,NEWPORT,PO30 2ER,50.70662,-1.283072
8JM50,MARTLETS HOSPICE,WAYFIELD AVENUE,,HOVE,BN3 7LW,50.840727,-0.190642
8K623,WILLOW BURN HOSPICE,HOWDEN BANK,LANCHESTER,DURHAM,DH7 0QS,54.839818,-1.733464
8K975,THE HOSPICE OF ST FRANCIS,SPRING GARDEN LANE,,BERKHAMSTED,HP4 3GW,51.766253,-0.599453
8KD39,COUNTESS MOUNTBATTEN HOSPICE,BOTLEY ROAD,WEST END,SOUTHAMPTON,SO30 3JB,50.92864,-1.323376
8KD95,SAINT MICHAELS HOSPICE (NORTHALLERTON),UNIT 18,OMEGA BUSINESS VILLAGE,NORTHALLERTON,DL6 2NJ,54.350199,-1.438374
8KH38,ALEXANDER DEVINE CHILDRENS CANCER TRUST OPERATING AS ALEXANDER DEVINE CHILDRENS HOSPICE SERVICE,SNOWBALL HILL,,MAIDENHEAD,SL6 3LU,51.497428,-0.756702
8KJ38,TYNEDALE HOSPICE AT HOME,1 LEGION HOUSE,BEAUFRONT PARK,HEXHAM,NE46 4TU,54.980094,-2.084788
8KM55,TYNEDALE HOSPICE @ HOME,1 LEGION HOUSE,BEAUFRONT PARK,HEXHAM,NE46 4TU,54.980094,-2.084788
8WC16,ST DAVID'S FOUNDATION HOSPICE CARE,BLACKETT AVENUE,,NEWPORT,NP20 6NH,51.614555,-3.010562
8WD19,MARIE CURIE CARDIFF AND VALE HOSPICE,BRIDGEMAN ROAD,,PENARTH,CF64 3YR,51.43367,-3.169573
8WE32,CITY HOSPICE,WHITCHURCH HOSPITAL,PARK ROAD,CARDIFF,CF14 7BF,51.517418,-3.235782
8WE40,ST KENTIGERN HOSPICE,UPPER DENBIGH ROAD,,ST ASAPH,LL17 0RS,53.251054,-3.433869
8WE41,PAUL SARTORI FOUNDATION,PAUL SARTORI HOUSE,WINCH LANE,HAVERFORDWEST,SA61 1RP,51.797609,-4.96977
8WE42,HOSPICE OF THE VALLEYS,PARK GATES,MORGAN STREET,TREDEGAR,NP22 3ND,51.770603,-3.244121
8WE43,GWYNEDD HOSPICE AT HOME,BODFAN,ERYRI HOSPITAL,CAERNARFON,LL55 2YE,53.1301,-4.262796
8WE44,USK-HOUSE DAY HOSPICE,BRIDGE STREET,LLANFAES,BRECON,LD3 8AH,51.947251,-3.39558
8WE68,ST ANNE'S HOSPICE,HARDING AVENUE,,NEWPORT,NP20 6ZE,51.618244,-3.005011
8WF02,NIGHTINGALE HOUSE HOSPICE,CHESTER ROAD,,WREXHAM,LL11 2SJ,53.051365,-2.992384
8WF03,TY HAFAN,HAYES ROAD,,PENARTH,CF64 5XX,51.401821,-3.232577
8WF04,ST DAVID'S HOSPICE,ABBEY ROAD,,LLANDUDNO,LL30 2EN,53.322385,-3.844709
8WG20,SHALOM HOUSE,113 NUN STREET,ST. DAVIDS,HAVERFORDWEST,SA62 6BP,51.885676,-5.260724
8WG37,HOSPICE OF THE VALLEYS,FESTIVAL DRIVE,,EBBW VALE,NP23 8XF,51.762511,-3.19992
A0L5G,ZOES PLACE BABY HOSPICE - LIVERPOOL,CROSSBECK HOUSE,HIGH STREET,MIDDLESBROUGH,TS6 9DA,54.558291,-1.154495
E4B0L,THE JESSIE MAY TRUST,35 OLD SCHOOL HOUSE,KINGSWOOD FOUNDATION ESTATE,BRISTOL,BS15 8DB,51.459138,-2.51624
H9W5S,EAST ANGLIA'S CHILDREN'S HOSPICES - THE TREEHOUSE,THE TREEHOUSE HOSPICE,ST. AUGUSTINES GARDENS,IPSWICH,IP3 8NS,52.044709,1.197397
I5E9F,SOUTHERN HOSPICE GROUP,ST. BARNABAS HOUSE,2 TITNORE LANE,WORTHING,BN12 6NZ,50.825924,-0.43382
L7T7A,YSTRAD MYNACH DAY HOSPICE,YSBYTY YSTRAD FAWR HOSPITAL,YSTRAD FAWR WAY,HENGOED,CF82 7GP,51.635158,-3.23411
L9L4K,BEDFORD DAYCARE HOSPICE,GLADYS IBBETT HOUSE,3 LINDEN ROAD,BEDFORD,MK40 2DD,52.143104,-0.480209
M5H2R,HARLINGTON HOSPICE ASSOCIATION LTD,ST. PETERS WAY,HARLINGTON,HAYES,UB3 5AB,51.493021,-0.433904
N8W4V,ZOES PLACE HOSPICE (COVENTRY),EASTER WAY,,COVENTRY,CV7 9HP,52.455423,-1.508509
O3M9P,SKANDA VALE HOSPICE,MAESYFFYNNON,SARON,LLANDYSUL,SA44 5DY,52.015318,-4.368506
Q0X4T,PANTEG DAY HOSPICE,PANTEG COUNTY HOSPITAL,COED Y GRIC ROAD,PONTYPOOL,NP4 5YA,51.690525,-3.026084
R5B6D,HAVEN HOUSE FOUNDATION,HIGH ROAD,,WOODFORD GREEN,IG8 9LB,51.606195,0.016433
R7J1T,EAST ANGLIA'S CHILDREN'S HOSPICES - MILTON,42-44 HIGH STREET,MILTON,CAMBRIDGE,CB24 6DF,52.244056,0.16268
RA2,ROYAL SURREY NHS FOUNDATION TRUST,EGERTON ROAD,,GUILDFORD,GU2 7XX,51.241012,-0.607443
RAE,BRADFORD TEACHING HOSPITALS NHS FOUNDATION TRUST,BRADFORD ROYAL INFIRMARY,DUCKWORTH LANE,BRADFORD,BD9 6RJ,53.805995,-1.7947
RBA,TAUNTON AND SOMERSET NHS FOUNDATION TRUST,MUSGROVE PARK HOSPITAL,,TAUNTON,TA1 5DA,51.011569,-3.121702
RBD,DORSET COUNTY HOSPITAL NHS FOUNDATION TRUST,DORSET COUNTY HOSPITAL,WILLIAMS AVENUE,DORCHESTER,DT1 2JY,50.712931,-2.446934
RBL,WIRRAL UNIVERSITY TEACHING HOSPITAL NHS FOUNDATION TRUST,ARROWE PARK HOSPITAL,ARROWE PARK ROAD,WIRRAL,CH49 5PE,53.36964,-3.096815
RBN,MERSEY AND WEST LANCASHIRE TEACHING HOSPITALS NHS TRUST,WHISTON HOSPITAL,WARRINGTON ROAD,PRESCOT,L35 5DR,53.420485,-2.784953
RBS,ALDER HEY CHILDREN'S NHS FOUNDATION TRUST,ALDER HEY HOSPITAL,EATON ROAD,LIVERPOOL,L12 2AP,53.421263,-2.897796
RBT,MID CHESHIRE HOSPITALS NHS FOUNDATION TRUST,LEIGHTON HOSPITAL,LEIGHTON,CREWE,CW1 4QJ,53.117701,-2.475863
RBV,THE CHRISTIE NHS FOUNDATION TRUST,550 WILMSLOW ROAD,WITHINGTON,MANCHESTER,M20 4BX,53.429783,-2.230124
RC1,BEDFORD HOSPITAL NHS TRUST,SOUTH WING,KEMPSTON ROAD,BEDFORD,MK42 9DJ,52.128277,-0.472474
RC3,EALING HOSPITAL NHS TRUST,UXBRIDGE ROAD,,SOUTHALL,UB1 3HW,51.507606,-0.345474
RC9,BEDFORDSHIRE HOSPITALS NHS FOUNDATION TRUST,LEWSEY ROAD,,LUTON,LU4 0DZ,51.894292,-0.474153
RCB,YORK AND SCARBOROUGH TEACHING HOSPITALS NHS FOUNDATION TRUST,YORK HOSPITAL,WIGGINTON ROAD,YORK,YO31 8HE,53.96897,-1.084294
RCC,SCARBOROUGH AND NORTH EAST YORKSHIRE HEALTH CARE NHS TRUST,SCARBOROUGH GENERAL HOSPITAL,WOODLANDS DRIVE,SCARBOROUGH,YO12 6QL,54.281725,-0.43477
RCD,HARROGATE AND DISTRICT NHS FOUNDATION TRUST,HARROGATE DISTRICT HOSPITAL,LANCASTER PARK ROAD,HARROGATE,HG2 7SX,53.993822,-1.517579
RCF,AIREDALE NHS FOUNDATION TRUST,AIREDALE GENERAL HOSPITAL,SKIPTON ROAD,KEIGHLEY,BD20 6TD,53.897957,-1.962729
RCS,NOTTINGHAM CITY HOSPITAL NHS TRUST,HUCKNALL ROAD,,NOTTINGHAM,NG5 1PB,52.990372,-1.158337
RCU,SHEFFIELD CHILDREN'S NHS FOUNDATION TRUST,WESTERN BANK,,SHEFFIELD,S10 2TH,53.380617,-1.490628
RCX,"THE QUEEN ELIZABETH HOSPITAL, KING'S LYNN, NHS FOUNDATION TRUST",QUEEN ELIZABETH HOSPITAL,GAYTON ROAD,KING'S LYNN,PE30 4ET,52.75663,0.446694
RD1,ROYAL UNITED HOSPITALS BATH NHS FOUNDATION TRUST,COMBE PARK,,BATH,BA1 3NG,51.391662,-2.391217
RD3,POOLE HOSPITAL NHS FOUNDATION TRUST,LONGFLEET ROAD,,POOLE,BH15 2JB,50.721977,-1.97311
RD8,MILTON KEYNES UNIVERSITY HOSPITAL NHS FOUNDATION TRUST,STANDING WAY,EAGLESTONE,MILTON KEYNES,MK6 5LD,52.026384,-0.73576
RDD,BASILDON AND THURROCK UNIVERSITY HOSPITALS NHS FOUNDATION TRUST,BASILDON HOSPITAL,NETHERMAYNE,BASILDON,SS16 5NL,51.558437,0.451767
RDR,SUSSEX COMMUNITY NHS FOUNDATION TRUST,BRIGHTON GENERAL HOSPITAL,ELM GROVE,BRIGHTON,BN2 3EW,50.831176,-0.114497
RDU,FRIMLEY HEALTH NHS FOUNDATION TRUST,PORTSMOUTH ROAD,FRIMLEY,CAMBERLEY,GU16 7UJ,51.319666,-0.742011
RDY,DORSET HEALTHCARE UNIVERSITY NHS FOUNDATION TRUST,SENTINEL HOUSE,4-6 NUFFIELD ROAD,POOLE,BH17 0RB,50.740063,-1.978032
RDZ,THE ROYAL BOURNEMOUTH AND CHRISTCHURCH HOSPITALS NHS FOUNDATION TRUST,ROYAL BOURNEMOUTH GENERAL HOSPITAL,CASTLE LANE EAST,BOURNEMOUTH,BH7 7DW,50.747472,-1.820512
RE9,SOUTH TYNESIDE NHS FOUNDATION TRUST,SOUTH TYNESIDE DISTRICT HOSPITAL,HARTON LANE,SOUTH SHIELDS,NE34 0PL,54.971208,-1.428469
REM,LIVERPOOL UNIVERSITY HOSPITALS NHS FOUNDATION TRUST,ROYAL LIVERPOOL UNIVERSITY HOSPITAL,PRESCOT STREET,LIVERPOOL,L7 8XP,53.409523,-2.964809
RFF,BARNSLEY HOSPITAL NHS FOUNDATION TRUST,GAWBER ROAD,,BARNSLEY,S75 2EP,53.55915,-1.499495
RFR,THE ROTHERHAM NHS FOUNDATION TRUST,MOORGATE ROAD,,ROTHERHAM,S60 2UD,53.413991,-1.342881
RFS,CHESTERFIELD ROYAL HOSPITAL NHS FOUNDATION TRUST,CHESTERFIELD ROAD,CALOW,CHESTERFIELD,S44 5BL,53.236233,-1.400049
RFW,WEST MIDDLESEX UNIVERSITY HOSPITAL NHS TRUST,TWICKENHAM ROAD,,ISLEWORTH,TW7 6AF,51.473648,-0.324413
RGM,ROYAL PAPWORTH HOSPITAL NHS FOUNDATION TRUST,PAPWORTH ROAD,CAMBRIDGE BIOMEDICAL CAMPUS,CAMBRIDGE,CB2 0AY,52.173522,0.136045
RGN,NORTH WEST ANGLIA NHS FOUNDATION TRUST,PETERBOROUGH CITY HOSPITAL,BRETTON GATE,PETERBOROUGH,PE3 9GZ,52.58394,-0.279371
RGP,JAMES PAGET UNIVERSITY HOSPITALS NHS FOUNDATION TRUST,LOWESTOFT ROAD,GORLESTON,GREAT YARMOUTH,NR31 6LA,52.561697,1.718003
RGQ,IPSWICH HOSPITAL NHS TRUST,HEATH ROAD,,IPSWICH,IP4 5PD,52.056863,1.197945
RGR,WEST SUFFOLK NHS FOUNDATION TRUST,WEST SUFFOLK HOSPITAL,HARDWICK LANE,BURY ST. EDMUNDS,IP33 2QZ,52.231679,0.709205
RGT,CAMBRIDGE UNIVERSITY HOSPITALS NHS FOUNDATION TRUST,CAMBRIDGE BIOMEDICAL CAMPUS,HILLS ROAD,CAMBRIDGE,CB2 0QQ,52.173753,0.139142
RGZ,QUEEN MARY'S SIDCUP NHS TRUST,QUEEN MARY'S HOSPITAL,FROGNAL AVENUE,SIDCUP,DA14 6LT,51.419041,0.101687
RHM,UNIVERSITY HOSPITAL SOUTHAMPTON NHS FOUNDATION TRUST,SOUTHAMPTON GENERAL HOSPITAL,TREMONA ROAD,SOUTHAMPTON,SO16 6YD,50.933011,-1.435095
RHW,ROYAL BERKSHIRE NHS FOUNDATION TRUST,ROYAL BERKSHIRE HOSPITAL,LONDON ROAD,READING,RG1 5AN,51.451023,-0.95931
RJ1,GUY'S AND ST THOMAS' NHS FOUNDATION TRUST,ST THOMAS' HOSPITAL,WESTMINSTER BRIDGE ROAD,LONDON,SE1 7EH,51.49796,-0.11888
RJ2,LEWISHAM AND GREENWICH NHS TRUST,UNIVERSITY HOSPITAL LEWISHAM,LEWISHAM HIGH STREET,LONDON,SE13 6LH,51.453022,-0.017917
RJ5,ST MARY'S NHS TRUST,ACROW BUILDING,PRAED STREET,LONDON,W2 1NY,51.516971,-0.173545
RJ6,CROYDON HEALTH SERVICES NHS TRUST,CROYDON UNIVERSITY HOSPITAL,530 LONDON ROAD,THORNTON HEATH,CR7 7YE,51.389128,-0.108758
RJ7,ST GEORGE'S UNIVERSITY HOSPITALS NHS FOUNDATION TRUST,ST GEORGE'S HOSPITAL,BLACKSHAW ROAD,LONDON,SW17 0QT,51.426682,-0.175694
RJC,SOUTH WARWICKSHIRE UNIVERSITY NHS FOUNDATION TRUST,WARWICK HOSPITAL,LAKIN ROAD,WARWICK,CV34 5BW,52.289965,-1.583203
RJD,MID STAFFORDSHIRE NHS FOUNDATION TRUST,STAFFORD HOSPITAL,WESTON ROAD,STAFFORD,ST16 3SA,52.811307,-2.097781
RJE,UNIVERSITY HOSPITALS OF NORTH MIDLANDS NHS TRUST,NEWCASTLE ROAD,,STOKE-ON-TRENT,ST4 6QG,53.003262,-2.211798
RJF,BURTON HOSPITALS NHS FOUNDATION TRUST,QUEEN'S HOSPITAL,BELVEDERE ROAD,BURTON-ON-TRENT,DE13 0RB,52.817793,-1.656379
RJN,EAST CHESHIRE NHS TRUST,MACCLESFIELD DISTRICT HOSPITAL,VICTORIA ROAD,MACCLESFIELD,SK10 3BL,53.262339,-2.141072
RJZ,KING'S COLLEGE HOSPITAL NHS FOUNDATION TRUST,DENMARK HILL,,LONDON,SE5 9RS,51.468078,-0.09389
RK9,UNIVERSITY HOSPITALS PLYMOUTH NHS TRUST,DERRIFORD HOSPITAL,DERRIFORD ROAD,PLYMOUTH,PL6 8DH,50.416707,-4.113712
RKE,WHITTINGTON HEALTH NHS TRUST,THE WHITTINGTON HOSPITAL,MAGDALA AVENUE,LONDON,N19 5NF,51.566482,-0.139066
RL4,THE ROYAL WOLVERHAMPTON NHS TRUST,NEW CROSS HOSPITAL,WOLVERHAMPTON ROAD,WOLVERHAMPTON,WV10 0QP,52.599738,-2.095549
RLN,CITY HOSPITALS SUNDERLAND NHS FOUNDATION TRUST,SUNDERLAND ROYAL HOSPITAL,KAYLL ROAD,SUNDERLAND,SR4 7TP,54.902214,-1.410327
RLQ,WYE VALLEY NHS TRUST,COUNTY HOSPITAL,27 UNION WALK,HEREFORD,HR1 2ER,52.058529,-2.707776
RLY,NORTH STAFFORDSHIRE COMBINED HEALTHCARE NHS TRUST,LAWTON HOUSE,BELLRINGER ROAD,STOKE-ON-TRENT,ST4 8HH,52.96839,-2.167808
RM1,NORFOLK AND NORWICH UNIVERSITY HOSPITALS NHS FOUNDATION TRUST,COLNEY LANE,COLNEY,NORWICH,NR4 7UY,52.617567,1.221195
RM2,UNIVERSITY HOSPITAL OF SOUTH MANCHESTER NHS FOUNDATION TRUST,WYTHENSHAWE HOSPITAL,SOUTHMOOR ROAD,MANCHESTER,M23 9LT,53.387938,-2.293183
RM4,TRAFFORD HEALTHCARE NHS TRUST,TRAFFORD GENERAL HOSPITAL,MOORSIDE ROAD,MANCHESTER,M41 5SL,53.454076,-2.37068
RMC,BOLTON NHS FOUNDATION TRUST,THE ROYAL BOLTON HOSPITAL,MINERVA ROAD,BOLTON,BL4 0JR,53.553973,-2.429892
RMP,TAMESIDE AND GLOSSOP INTEGRATED CARE NHS FOUNDATION TRUST,TAMESIDE GENERAL HOSPITAL,FOUNTAIN STREET,ASHTON-UNDER-LYNE,OL6 9RW,53.491546,-2.071432
RN3,GREAT WESTERN HOSPITALS NHS FOUNDATION TRUST,GREAT WESTERN HOSPITAL,MARLBOROUGH ROAD,SWINDON,SN3 6BB,51.538529,-1.727188
RN5,HAMPSHIRE HOSPITALS NHS FOUNDATION TRUST,BASINGSTOKE AND NORTH HAMPSHIRE HOS,ALDERMASTON ROAD,BASINGSTOKE,RG24 9NA,51.280633,-1.1099
RNH,NEWHAM UNIVERSITY HOSPITAL NHS TRUST,NEWHAM GENERAL HOSPITAL,GLEN ROAD,LONDON,E13 8SL,51.522777,0.034744
RNJ,BARTS AND THE LONDON NHS TRUST,"TRUST OFFICES, WHITECHAPEL",THE ROYAL LONDON HOSPITAL,LONDON,E1 1BB,51.519019,-0.058106
RNS,NORTHAMPTON GENERAL HOSPITAL NHS TRUST,CLIFTONVILLE,,NORTHAMPTON,NN1 5BD,52.236068,-0.883829
RNZ,SALISBURY NHS FOUNDATION TRUST,SALISBURY DISTRICT HOSPITAL,ODSTOCK ROAD,SALISBURY,SP2 8BJ,51.04394,-1.789814
RP4,GREAT ORMOND STREET HOSPITAL FOR CHILDREN NHS FOUNDATION TRUST,GREAT ORMOND STREET,,LONDON,WC1N 3JH,51.522212,-0.119898
RPL,WORTHING AND SOUTHLANDS HOSPITALS NHS TRUST,WORTHING HOSPITAL,LYNDHURST ROAD,WORTHING,BN11 2DH,50.816683,-0.363404
RPR,ROYAL WEST SUSSEX NHS TRUST,ST RICHARD'S HOSPITAL,SPITALFIELD LANE,CHICHESTER,PO19 6SE,50.843544,-0.768008
RPY,THE ROYAL MARSDEN NHS FOUNDATION TRUST,FULHAM ROAD,,LONDON,SW3 6JJ,51.490562,-0.172541
RQ3,BIRMINGHAM WOMEN'S AND CHILDREN'S NHS FOUNDATION TRUST,STEELHOUSE LANE,,BIRMINGHAM,B4 6NH,52.484784,-1.893809
RQ6,ROYAL LIVERPOOL AND BROADGREEN UNIVERSITY HOSPITALS NHS TRUST,ROYAL LIVERPOOL UNIVERSITY HOSPITAL,PRESCOT STREET,LIVERPOOL,L7 8XP,53.409523,-2.964809
RQ8,MID ESSEX HOSPITAL SERVICES NHS TRUST,BROOMFIELD HOSPITAL,COURT ROAD,CHELMSFORD,CM1 7ET,51.774662,0.466021
RQF,VELINDRE NHS TRUST,UNIT 2,CHARNWOOD COURT,CARDIFF,CF15 7QZ,51.565918,-3.277885
RQM,CHELSEA AND WESTMINSTER HOSPITAL NHS FOUNDATION TRUST,CHELSEA & WESTMINSTER HOSPITAL,369 FULHAM ROAD,LONDON,SW10 9NH,51.484309,-0.18162
RQN,HAMMERSMITH HOSPITALS NHS TRUST,HAMMERSMITH HOSPITAL,DU CANE ROAD,LONDON,W12 0HS,51.517422,-0.234698
RQQ,HINCHINGBROOKE HEALTH CARE NHS TRUST,HINCHINGBROOKE HOSPITAL,,HUNTINGDON,PE29 6NT,52.333364,-0.202658
RQX,HOMERTON HEALTHCARE NHS FOUNDATION TRUST,HOMERTON ROW,,LONDON,E9 6SR,51.550635,-0.046072
RRK,UNIVERSITY HOSPITALS BIRMINGHAM NHS FOUNDATION TRUST,QUEEN ELIZABETH HOSPITAL,MINDELSOHN WAY,BIRMINGHAM,B15 2GW,52.451833,-1.942563
RXW,THE SHREWSBURY AND TELFORD HOSPITAL NHS TRUST,MYTTON OAK ROAD,,SHREWSBURY,SY3 8XQ,52.709274,-2.793689
RY6,LEEDS COMMUNITY HEALTHCARE NHS TRUST,3 WHITE ROSE OFFICE PARK,MILLSHAW PARK LANE,LEEDS,LS11 0DL,53.762746,-1.575641
RYJ,IMPERIAL COLLEGE HEALTHCARE NHS TRUST,THE BAYS,ST MARYS HOSPITAL,LONDON,W2 1BL,51.517542,-0.174387
V5I1P,EAST ANGLIA'S CHILDREN'S HOSPICES - THE NOOK,THE NOOK,PIGOT LANE,NORWICH,NR14 7PX,52.577817,1.342751
V6J7T,BASSETLAW HOSPICE,NORTH ROAD,,RETFORD,DN22 7XF,53.325592,-0.950991
V9O8O,ST. LUKE'S HOSPICE,FARRIERS WAY,BULPHAN,UPMINSTER,RM14 3EB,51.547226,0.402916
W7J7L,ST BARNABAS HOUSE HOSPICES SUSSEX,ST. BARNABAS HOUSE,2 TITNORE LANE,WORTHING,BN12 6NZ,50.825924,-0.43382
W8T3O,LAWRENCE HOME NURSING TEAM,CHIPPING NORTON WAR MEMORIAL,COMMUNITY HOSPITAL,CHIPPING NORTON,OX7 5FA,51.945593,-1.535071
Y8K7O,FOREVER COLOURS CHILDRENS HOSPICE,SUNDIAL COTTAGE,SEWELL,DUNSTABLE,LU6 1RP,51.896942,-0.555148
Z5Q1M,NORTH LONDON HOSPICE (BARROWELL GREEN),110 BARROWELL GREEN,,LONDON,N21 3AY,51.625644,-0.094316
